[
  {
    "OBJECT_NAME": "STARLINK-34232",
    "OBJECT_ID": "25161E",
    "EPOCH": "2025-11-11T04:24:15.671808",
    "MEAN_MOTION": 15.302265,
    "ECCENTRICITY": 0.0001727,
    "INCLINATION": 53.1542,
    "RA_OF_ASC_NODE": 124.8247,
    "ARG_OF_PERICENTER": 82.189,
    "MEAN_ANOMALY": 277.9307,
    "EPHEMERIS_TYPE": 0,
    "CLASSIFICATION_TYPE": "U",
    "NORAD_CAT_ID": 65019,
    "ELEMENT_SET_NO": 999,
    "REV_AT_EPOCH": 1729,
    "BSTAR": 0.0010943,
    "MEAN_MOTION_DOT": 0.00032218,
    "MEAN_MOTION_DDOT": 0.0,
    "TLE_LINE1": "1 65019U 25161E   25315.18351472  .00032218  00000+0  10943-2 0  9997",
    "TLE_LINE2": "2 65019  53.1542 124.8247 0001727  82.1890 277.9307 15.30226500 17294",
    "COMMENT": "Grouped by shell and plane from TLE"
  },
  {
    "OBJECT_NAME": "STARLINK-34772",
    "OBJECT_ID": "25161F",
    "EPOCH": "2025-11-10T18:31:04.188864",
    "MEAN_MOTION": 15.30206074,
    "ECCENTRICITY": 0.0001134,
    "INCLINATION": 53.1596,
    "RA_OF_ASC_NODE": 126.5208,
    "ARG_OF_PERICENTER": 90.3966,
    "MEAN_ANOMALY": 269.7165,
    "EPHEMERIS_TYPE": 0,
    "CLASSIFICATION_TYPE": "U",
    "NORAD_CAT_ID": 65020,
    "ELEMENT_SET_NO": 999,
    "REV_AT_EPOCH": 1723,
    "BSTAR": 0.0010377000000000001,
    "MEAN_MOTION_DOT": 0.00030507,
    "MEAN_MOTION_DDOT": 0.0,
    "TLE_LINE1": "1 65020U 25161F   25314.77157626  .00030507  00000+0  10377-2 0  9998",
    "TLE_LINE2": "2 65020  53.1596 126.5208 0001134  90.3966 269.7165 15.30206074 17237",
    "COMMENT": "Grouped by shell and plane from TLE"
  },
  {
    "OBJECT_NAME": "STARLINK-34778",
    "OBJECT_ID": "25161G",
    "EPOCH": "2025-11-10T20:47:40.567200",
    "MEAN_MOTION": 15.30231094,
    "ECCENTRICITY": 0.0001733,
    "INCLINATION": 53.1585,
    "RA_OF_ASC_NODE": 126.4027,
    "ARG_OF_PERICENTER": 72.2892,
    "MEAN_ANOMALY": 287.8298,
    "EPHEMERIS_TYPE": 0,
    "CLASSIFICATION_TYPE": "U",
    "NORAD_CAT_ID": 65021,
    "ELEMENT_SET_NO": 999,
    "REV_AT_EPOCH": 1712,
    "BSTAR": 0.0011406,
    "MEAN_MOTION_DOT": 0.00033609,
    "MEAN_MOTION_DDOT": 0.0,
    "TLE_LINE1": "1 65021U 25161G   25314.86644175  .00033609  00000+0  11406-2 0  9999",
    "TLE_LINE2": "2 65021  53.1585 126.4027 0001733  72.2892 287.8298 15.30231094 17122",
    "COMMENT": "Grouped by shell and plane from TLE"
  },
  {
    "OBJECT_NAME": "STARLINK-34789",
    "OBJECT_ID": "25161H",
    "EPOCH": "2025-11-10T20:41:35.163456",
    "MEAN_MOTION": 15.302241,
    "ECCENTRICITY": 4.55e-05,
    "INCLINATION": 53.16,
    "RA_OF_ASC_NODE": 126.3728,
    "ARG_OF_PERICENTER": 233.3789,
    "MEAN_ANOMALY": 126.717,
    "EPHEMERIS_TYPE": 0,
    "CLASSIFICATION_TYPE": "U",
    "NORAD_CAT_ID": 65022,
    "ELEMENT_SET_NO": 999,
    "REV_AT_EPOCH": 1712,
    "BSTAR": 0.0010943,
    "MEAN_MOTION_DOT": 0.00032217,
    "MEAN_MOTION_DDOT": 0.0,
    "TLE_LINE1": "1 65022U 25161H   25314.86221254  .00032217  00000+0  10943-2 0  9998",
    "TLE_LINE2": "2 65022  53.1600 126.3728 0000455 233.3789 126.7170 15.30224100 17123",
    "COMMENT": "Grouped by shell and plane from TLE"
  },
  {
    "OBJECT_NAME": "STARLINK-34858",
    "OBJECT_ID": "25161J",
    "EPOCH": "2025-11-11T04:18:10.614528",
    "MEAN_MOTION": 15.30226559,
    "ECCENTRICITY": 1.16e-05,
    "INCLINATION": 53.1545,
    "RA_OF_ASC_NODE": 124.7994,
    "ARG_OF_PERICENTER": 68.4652,
    "MEAN_ANOMALY": 291.6361,
    "EPHEMERIS_TYPE": 0,
    "CLASSIFICATION_TYPE": "U",
    "NORAD_CAT_ID": 65023,
    "ELEMENT_SET_NO": 999,
    "REV_AT_EPOCH": 1717,
    "BSTAR": 0.0013703,
    "MEAN_MOTION_DOT": 0.0004048,
    "MEAN_MOTION_DDOT": 0.0,
    "TLE_LINE1": "1 65023U 25161J   25315.17928952  .00040480  00000+0  13703-2 0  9991",
    "TLE_LINE2": "2 65023  53.1545 124.7994 0000116  68.4652 291.6361 15.30226559 17178",
    "COMMENT": "Grouped by shell and plane from TLE"
  },
  {
    "OBJECT_NAME": "STARLINK-34773",
    "OBJECT_ID": "25161K",
    "EPOCH": "2025-11-10T18:17:23.107200",
    "MEAN_MOTION": 15.30232151,
    "ECCENTRICITY": 0.0001391,
    "INCLINATION": 53.1584,
    "RA_OF_ASC_NODE": 126.4582,
    "ARG_OF_PERICENTER": 82.6555,
    "MEAN_ANOMALY": 277.4604,
    "EPHEMERIS_TYPE": 0,
    "CLASSIFICATION_TYPE": "U",
    "NORAD_CAT_ID": 65024,
    "ELEMENT_SET_NO": 999,
    "REV_AT_EPOCH": 1711,
    "BSTAR": 0.00086929,
    "MEAN_MOTION_DOT": 0.00025501,
    "MEAN_MOTION_DDOT": 0.0,
    "TLE_LINE1": "1 65024U 25161K   25314.76207300  .00025501  00000+0  86929-3 0  9991",
    "TLE_LINE2": "2 65024  53.1584 126.4582 0001391  82.6555 277.4604 15.30232151 17111",
    "COMMENT": "Grouped by shell and plane from TLE"
  },
  {
    "OBJECT_NAME": "STARLINK-34727",
    "OBJECT_ID": "25161L",
    "EPOCH": "2025-11-11T05:02:04.756992",
    "MEAN_MOTION": 15.30233275,
    "ECCENTRICITY": 7.53e-05,
    "INCLINATION": 53.165,
    "RA_OF_ASC_NODE": 124.2745,
    "ARG_OF_PERICENTER": 316.1506,
    "MEAN_ANOMALY": 43.9435,
    "EPHEMERIS_TYPE": 0,
    "CLASSIFICATION_TYPE": "U",
    "NORAD_CAT_ID": 65025,
    "ELEMENT_SET_NO": 999,
    "REV_AT_EPOCH": 1721,
    "BSTAR": 0.0013666000000000001,
    "MEAN_MOTION_DOT": 0.00040379,
    "MEAN_MOTION_DDOT": 0.0,
    "TLE_LINE1": "1 65025U 25161L   25315.20977728  .00040379  00000+0  13666-2 0  9997",
    "TLE_LINE2": "2 65025  53.1650 124.2745 0000753 316.1506  43.9435 15.30233275 17212",
    "COMMENT": "Grouped by shell and plane from TLE"
  },
  {
    "OBJECT_NAME": "STARLINK-34804",
    "OBJECT_ID": "25161M",
    "EPOCH": "2025-11-10T18:46:15.803040",
    "MEAN_MOTION": 15.30213378,
    "ECCENTRICITY": 0.0001721,
    "INCLINATION": 53.1562,
    "RA_OF_ASC_NODE": 126.5843,
    "ARG_OF_PERICENTER": 91.1689,
    "MEAN_ANOMALY": 268.9509,
    "EPHEMERIS_TYPE": 0,
    "CLASSIFICATION_TYPE": "U",
    "NORAD_CAT_ID": 65026,
    "ELEMENT_SET_NO": 999,
    "REV_AT_EPOCH": 1713,
    "BSTAR": 0.0007397,
    "MEAN_MOTION_DOT": 0.00021622,
    "MEAN_MOTION_DDOT": 0.0,
    "TLE_LINE1": "1 65026U 25161M   25314.78212735  .00021622  00000+0  73970-3 0  9995",
    "TLE_LINE2": "2 65026  53.1562 126.5843 0001721  91.1689 268.9509 15.30213378 17131",
    "COMMENT": "Grouped by shell and plane from TLE"
  },
  {
    "OBJECT_NAME": "STARLINK-34655",
    "OBJECT_ID": "25161N",
    "EPOCH": "2025-11-11T06:22:37.326720",
    "MEAN_MOTION": 15.30210948,
    "ECCENTRICITY": 0.0001132,
    "INCLINATION": 53.1597,
    "RA_OF_ASC_NODE": 124.6208,
    "ARG_OF_PERICENTER": 72.0361,
    "MEAN_ANOMALY": 288.0763,
    "EPHEMERIS_TYPE": 0,
    "CLASSIFICATION_TYPE": "U",
    "NORAD_CAT_ID": 65027,
    "ELEMENT_SET_NO": 999,
    "REV_AT_EPOCH": 1719,
    "BSTAR": 0.00066779,
    "MEAN_MOTION_DOT": 0.00019477,
    "MEAN_MOTION_DDOT": 0.0,
    "TLE_LINE1": "1 65027U 25161N   25315.26570980  .00019477  00000+0  66779-3 0  9993",
    "TLE_LINE2": "2 65027  53.1597 124.6208 0001132  72.0361 288.0763 15.30210948 17196",
    "COMMENT": "Grouped by shell and plane from TLE"
  },
  {
    "OBJECT_NAME": "STARLINK-34807",
    "OBJECT_ID": "25161P",
    "EPOCH": "2025-11-11T04:54:28.786176",
    "MEAN_MOTION": 15.30234693,
    "ECCENTRICITY": 5.61e-05,
    "INCLINATION": 53.1645,
    "RA_OF_ASC_NODE": 124.2407,
    "ARG_OF_PERICENTER": 294.1704,
    "MEAN_ANOMALY": 65.9238,
    "EPHEMERIS_TYPE": 0,
    "CLASSIFICATION_TYPE": "U",
    "NORAD_CAT_ID": 65028,
    "ELEMENT_SET_NO": 999,
    "REV_AT_EPOCH": 1719,
    "BSTAR": 0.0012329,
    "MEAN_MOTION_DOT": 0.00036372,
    "MEAN_MOTION_DDOT": 0.0,
    "TLE_LINE1": "1 65028U 25161P   25315.20449984  .00036372  00000+0  12329-2 0  9991",
    "TLE_LINE2": "2 65028  53.1645 124.2407 0000561 294.1704  65.9238 15.30234693 17193",
    "COMMENT": "Grouped by shell and plane from TLE"
  },
  {
    "OBJECT_NAME": "STARLINK-34731",
    "OBJECT_ID": "25161Q",
    "EPOCH": "2025-11-11T04:06:01.573056",
    "MEAN_MOTION": 15.3020943,
    "ECCENTRICITY": 0.0001688,
    "INCLINATION": 53.1555,
    "RA_OF_ASC_NODE": 124.7426,
    "ARG_OF_PERICENTER": 85.4597,
    "MEAN_ANOMALY": 274.6596,
    "EPHEMERIS_TYPE": 0,
    "CLASSIFICATION_TYPE": "U",
    "NORAD_CAT_ID": 65029,
    "ELEMENT_SET_NO": 999,
    "REV_AT_EPOCH": 1718,
    "BSTAR": 0.0016319000000000001,
    "MEAN_MOTION_DOT": 0.00048303,
    "MEAN_MOTION_DDOT": 0.0,
    "TLE_LINE1": "1 65029U 25161Q   25315.17085154  .00048303  00000+0  16319-2 0  9993",
    "TLE_LINE2": "2 65029  53.1555 124.7426 0001688  85.4597 274.6596 15.30209430 17188",
    "COMMENT": "Grouped by shell and plane from TLE"
  },
  {
    "OBJECT_NAME": "STARLINK-34614",
    "OBJECT_ID": "25161R",
    "EPOCH": "2025-11-10T20:52:14.385216",
    "MEAN_MOTION": 15.30253581,
    "ECCENTRICITY": 0.0001461,
    "INCLINATION": 53.1546,
    "RA_OF_ASC_NODE": 126.4174,
    "ARG_OF_PERICENTER": 91.4431,
    "MEAN_ANOMALY": 268.6738,
    "EPHEMERIS_TYPE": 0,
    "CLASSIFICATION_TYPE": "U",
    "NORAD_CAT_ID": 65030,
    "ELEMENT_SET_NO": 999,
    "REV_AT_EPOCH": 1713,
    "BSTAR": 0.0011309,
    "MEAN_MOTION_DOT": 0.00033341,
    "MEAN_MOTION_DDOT": 0.0,
    "TLE_LINE1": "1 65030U 25161R   25314.86961094  .00033341  00000+0  11309-2 0  9996",
    "TLE_LINE2": "2 65030  53.1546 126.4174 0001461  91.4431 268.6738 15.30253581 17134",
    "COMMENT": "Grouped by shell and plane from TLE"
  },
  {
    "OBJECT_NAME": "STARLINK-34677",
    "OBJECT_ID": "25161S",
    "EPOCH": "2025-11-10T20:46:08.832000",
    "MEAN_MOTION": 15.30228568,
    "ECCENTRICITY": 4.29e-05,
    "INCLINATION": 53.1621,
    "RA_OF_ASC_NODE": 126.3917,
    "ARG_OF_PERICENTER": 109.6736,
    "MEAN_ANOMALY": 250.4311,
    "EPHEMERIS_TYPE": 0,
    "CLASSIFICATION_TYPE": "U",
    "NORAD_CAT_ID": 65031,
    "ELEMENT_SET_NO": 999,
    "REV_AT_EPOCH": 1603,
    "BSTAR": 0.0011308,
    "MEAN_MOTION_DOT": 0.00033311,
    "MEAN_MOTION_DDOT": 0.0,
    "TLE_LINE1": "1 65031U 25161S   25314.86538000  .00033311  00000+0  11308-2 0  9990",
    "TLE_LINE2": "2 65031  53.1621 126.3917 0000429 109.6736 250.4311 15.30228568 16037",
    "COMMENT": "Grouped by shell and plane from TLE"
  }
]